GLOBALSTAR M057         
1 25943U 99058A   24241.87857745 -.00000028  00000+0  58803-3 0  9995
2 25943  51.9972  97.7537 0002832 117.1087 243.0051 12.24793038131117
GLOBALSTAR M059         
1 25944U 99058B   24241.82617782 -.00000073  00000+0  16931-3 0  9992
2 25944  52.0006 278.0984 0000441 108.0098  63.4003 11.99964630538945
GLOBALSTAR M056         
1 25945U 99058C   24241.91426147 -.00000058  00000+0  34684-3 0  9994
2 25945  51.9961 287.3238 0000523 306.2818 226.1135 12.04776791127395
GLOBALSTAR M031         
1 25946U 99058D   24241.65057947  .00000021  00000+0  11357-2 0  9994
2 25946  51.9943 197.8806 0001522 317.1135 213.5362 12.16014346128954
GLOBALSTAR M039         
1 25961U 99062A   24241.82903343 -.00000054  00000+0  27516-3 0  9997
2 25961  51.9843  79.1648 0003569  64.6444 295.4792 12.62301262143293
GLOBALSTAR M034         
1 25962U 99062B   24241.72545608 -.00000038  00000+0  67623-3 0  9998
2 25962  51.9881  51.6085 0013490 206.1155 166.8295 11.79431547103889
GLOBALSTAR M029         
1 25963U 99062C   24241.56562679 -.00000066  00000+0  24730-3 0  9991
2 25963  51.9795 167.0875 0002236 272.4445 259.0497 11.99882549134042
GLOBALSTAR M061         
1 25964U 99062D   24241.69784354 -.00000025  00000+0  90656-3 0  9997
2 25964  51.9758 231.8397 0005918 134.7147  35.9557 11.76764588 86748
